NORAD_CAT_ID,OBJECT_NAME,OBJECT_TYPE,EPOCH,MEAN_MOTION,ECCENTRICITY,INCLINATION,RA_OF_ASC_NODE,ARG_OF_PERICENTER,MEAN_ANOMALY,BSTAR,MEAN_MOTION_DOT,MEAN_MOTION_DDOT,TLE_LINE0,TLE_LINE1,TLE_LINE2,SEMIMAJOR_AXIS,PERIOD,APOGEE,PERIGEE,DECAYED
54062.0,STARLINK-5170,PAYLOAD,2024-08-13 04:16:39,15.08858842,0.0001714,53.2177,38.6841,80.9045,279.2141,0.00029635,4.434e-05,0.0,0 STARLINK-5170,1 54062U 22136M   24226.17823043  .00004434  00000-0  29635-3 0  9998,2 54062  53.2177  38.6841 0001714  80.9045 279.2141 15.08858842100740,6917.823,95.436,540.874,538.502,0.0
54062.0,STARLINK-5170,PAYLOAD,2024-08-13 12:13:37,15.08791354,0.0001062,53.219,37.1982,79.903,280.2082,-0.00091481,-0.00014798,0.0,0 STARLINK-5170,1 54062U 22136M   24226.50945988 -.00014798  00000-0 -91481-3 0  9992,2 54062  53.2190  37.1982 0001062  79.9030 280.2082 15.08791354100798,6918.029,95.441,540.629,539.159,0.0
54062.0,STARLINK-5170,PAYLOAD,2024-08-13 21:45:56,15.08796665,0.0001252,53.2172,35.4132,76.1145,283.9987,-0.00072524,-0.00011798,0.0,0 STARLINK-5170,1 54062U 22136M   24226.90690709 -.00011798  00000-0 -72524-3 0  9998,2 54062  53.2172  35.4132 0001252  76.1145 283.9987 15.08796665100371,6918.013,95.44,540.744,539.012,0.0
54062.0,STARLINK-5170,PAYLOAD,2024-08-14 04:07:28,15.08824275,5.35e-05,53.2178,34.2248,80.4405,279.6647,3.4897e-05,2.68e-06,0.0,0 STARLINK-5170,1 54062U 22136M   24227.17186057  .00000268  00000-0  34897-4 0  9994,2 54062  53.2178  34.2248 0000535  80.4405 279.6647 15.08824275100893,6917.928,95.439,540.164,539.423,0.0
54062.0,STARLINK-5170,PAYLOAD,2024-08-14 18:25:57,15.08843249,0.0001048,53.2178,31.5478,103.6776,256.4333,0.0010217,0.00016011,0.0,0 STARLINK-5170,1 54062U 22136M   24227.76802538  .00016011  00000-0  10217-2 0  9999,2 54062  53.2178  31.5478 0001048 103.6776 256.4333 15.08843249100984,6917.87,95.437,540.46,539.01,0.0
54062.0,STARLINK-5170,PAYLOAD,2024-08-15 03:58:15,15.08869075,9.84e-05,53.2165,29.764,87.768,272.3425,0.0010395,0.00016307,0.0,0 STARLINK-5170,1 54062U 22136M   24228.16545858  .00016307  00000-0  10395-2 0  9998,2 54062  53.2165  29.7640 0000984  87.7680 272.3425 15.08869075101046,6917.792,95.436,540.337,538.976,0.0
54062.0,STARLINK-5170,PAYLOAD,2024-08-16 03:49:00,15.08869637,6.04e-05,53.2157,25.3001,256.5856,103.5069,0.00064796,0.00010048,0.0,0 STARLINK-5170,1 54062U 22136M   24229.15903847  .00010048  00000-0  64796-3 0  9995,2 54062  53.2157  25.3001 0000604 256.5856 103.5069 15.08869637101199,6917.79,95.436,540.073,539.237,0.0
54062.0,STARLINK-5170,PAYLOAD,2024-08-16 19:42:53,15.0884661,0.000395,53.2169,22.3279,81.5021,278.6419,0.00073307,0.00011401,0.0,0 STARLINK-5170,1 54062U 22136M   24229.82145804  .00011401  00000-0  73307-3 0  9992,2 54062  53.2169  22.3279 0003950  81.5021 278.6419 15.08846610101293,6917.86,95.437,542.458,536.993,0.0
54062.0,STARLINK-5170,PAYLOAD,2024-08-17 19:33:40,15.08818539,0.0001418,53.218,17.869,284.999,75.0845,0.00052647,8.096e-05,0.0,0 STARLINK-5170,1 54062U 22136M   24230.81505660  .00008096  00000-0  52647-3 0  9993,2 54062  53.2180  17.8690 0001418 284.9990  75.0845 15.08818539101441,6917.946,95.439,540.792,538.83,0.0
54062.0,STARLINK-5170,PAYLOAD,2024-08-18 19:24:28,15.08860334,6.1e-05,53.2192,13.4069,55.8182,304.2868,0.0011329,0.00017798,0.0,0 STARLINK-5170,1 54062U 22136M   24231.80865984  .00017798  00000-0  11329-2 0  9991,2 54062  53.2192  13.4069 0000610  55.8182 304.2868 15.08860334101595,6917.818,95.436,540.105,539.261,0.0
54062.0,STARLINK-5170,PAYLOAD,2024-08-19 09:42:56,15.08854522,7.3e-05,53.2188,10.7322,71.6144,288.4927,0.00039302,5.975e-05,0.0,0 STARLINK-5170,1 54062U 22136M   24232.40481751  .00005975  00000-0  39302-3 0  9990,2 54062  53.2188  10.7322 0000730  71.6144 288.4927 15.08854522101680,6917.836,95.437,540.206,539.196,0.0
54062.0,STARLINK-5170,PAYLOAD,2024-08-20 12:44:28,15.08836486,0.0001235,53.2194,5.674,87.548,272.5654,-0.00042149,-6.989e-05,0.0,0 STARLINK-5170,1 54062U 22136M   24233.53088856 -.00006989  00000-0 -42149-3 0  9995,2 54062  53.2194   5.6740 0001235  87.5480 272.5654 15.08836486101853,6917.891,95.438,540.61,538.902,0.0
54062.0,STARLINK-5170,PAYLOAD,2024-08-20 14:19:52,15.08838694,0.0001295,53.2181,5.3789,65.6635,294.4492,-0.00032485,-5.454e-05,0.0,0 STARLINK-5170,1 54062U 22136M   24233.59713133 -.00005454  00000-0 -32485-3 0  9992,2 54062  53.2181   5.3789 0001295  65.6635 294.4492 15.08838694101388,6917.884,95.438,540.645,538.854,0.0
54062.0,STARLINK-5170,PAYLOAD,2024-08-21 14:10:39,15.08839676,0.0001116,53.2177,0.9172,94.7471,265.3649,-0.00021778,-3.752e-05,0.0,0 STARLINK-5170,1 54062U 22136M   24234.59073051 -.00003752  00000-0 -21778-3 0  9993,2 54062  53.2177   0.9172 0001116  94.7471 265.3649 15.08839676101532,6917.881,95.438,540.518,538.974,0.0
54062.0,STARLINK-5170,PAYLOAD,2024-08-21 15:46:01,15.08849698,0.0001097,53.2176,0.6205,105.1651,254.9462,-0.00068632,-0.00011197,0.0,0 STARLINK-5170,1 54062U 22136M   24234.65696301 -.00011197  00000-0 -68632-3 0  9991,2 54062  53.2176   0.6205 0001097 105.1651 254.9462 15.08849698102027,6917.851,95.437,540.475,538.957,0.0
